[{"OBJECT_NAME":"HAWK-11C","OBJECT_ID":"2024-247E","EPOCH":"2026-03-09T12:17:35.407968","MEAN_MOTION":15.2884802,"ECCENTRICITY":0.00059001,"INCLINATION":45.0045,"RA_OF_ASC_NODE":114.8762,"ARG_OF_PERICENTER":329.704,"MEAN_ANOMALY":30.3502,"EPHEMERIS_TYPE":0,"CLASSIFICATION_TYPE":"U","NORAD_CAT_ID":62381,"ELEMENT_SET_NO":999,"REV_AT_EPOCH":6774,"BSTAR":0.00033290115,"MEAN_MOTION_DOT":9.223e-5,"MEAN_MOTION_DDOT":0},{"OBJECT_NAME":"STARLINK-34365","OBJECT_ID":"2025-139H","EPOCH":"2026-03-09T10:47:30.577344","MEAN_MOTION":15.30218259,"ECCENTRICITY":0.00010975,"INCLINATION":53.1567,"RA_OF_ASC_NODE":128.4161,"ARG_OF_PERICENTER":93.2285,"MEAN_ANOMALY":266.8841,"EPHEMERIS_TYPE":0,"CLASSIFICATION_TYPE":"U","NORAD_CAT_ID":64671,"ELEMENT_SET_NO":999,"REV_AT_EPOCH":4030,"BSTAR":0.00089298382,"MEAN_MOTION_DOT":0.00026197,"MEAN_MOTION_DDOT":0}]
